CCSDS_OMM_VERS = 2.0
CREATION_DATE  = 
ORIGINATOR     = 

OBJECT_NAME    = KUIPER-00200
OBJECT_ID      = 2026-030J
CENTER_NAME    = EARTH
REF_FRAME      = TEME
TIME_SYSTEM    = UTC
MEAN_ELEMENT_THEORY = SGP/SGP4

EPOCH          = 2026-03-06T19:34:30.734400
MEAN_MOTION    = 15.36938480
ECCENTRICITY   = .0001222
INCLINATION    = 51.8804
RA_OF_ASC_NODE = 232.8116
ARG_OF_PERICENTER = 232.7594
MEAN_ANOMALY   = 127.3281

EPHEMERIS_TYPE = 0
CLASSIFICATION_TYPE = U
NORAD_CAT_ID   = 67772
ELEMENT_SET_NO = 999
REV_AT_EPOCH   = 465
BSTAR          = .11032E-2
MEAN_MOTION_DOT = .403E-3
MEAN_MOTION_DDOT = 0

CCSDS_OMM_VERS = 2.0
CREATION_DATE  = 
ORIGINATOR     = 

OBJECT_NAME    = KUIPER-00203
OBJECT_ID      = 2026-030K
CENTER_NAME    = EARTH
REF_FRAME      = TEME
TIME_SYSTEM    = UTC
MEAN_ELEMENT_THEORY = SGP/SGP4

EPOCH          = 2026-03-06T20:00:00.999360
MEAN_MOTION    = 15.20116818
ECCENTRICITY   = .0011778
INCLINATION    = 51.8832
RA_OF_ASC_NODE = 233.5132
ARG_OF_PERICENTER = 51.4373
MEAN_ANOMALY   = 352.7996

EPHEMERIS_TYPE = 0
CLASSIFICATION_TYPE = U
NORAD_CAT_ID   = 67773
ELEMENT_SET_NO = 999
REV_AT_EPOCH   = 321
BSTAR          = -.68542E-1
MEAN_MOTION_DOT = -.1367463E-1
MEAN_MOTION_DDOT = 0

CCSDS_OMM_VERS = 2.0
CREATION_DATE  = 
ORIGINATOR     = 

OBJECT_NAME    = KUIPER-00205
OBJECT_ID      = 2026-030L
CENTER_NAME    = EARTH
REF_FRAME      = TEME
TIME_SYSTEM    = UTC
MEAN_ELEMENT_THEORY = SGP/SGP4

EPOCH          = 2026-03-06T19:48:27.152928
MEAN_MOTION    = 15.36275514
ECCENTRICITY   = .000308
INCLINATION    = 51.8805
RA_OF_ASC_NODE = 232.8738
ARG_OF_PERICENTER = 12.6243
MEAN_ANOMALY   = 347.4820

EPHEMERIS_TYPE = 0
CLASSIFICATION_TYPE = U
NORAD_CAT_ID   = 67774
ELEMENT_SET_NO = 999
REV_AT_EPOCH   = 465
BSTAR          = .12902E-2
MEAN_MOTION_DOT = .46234E-3
MEAN_MOTION_DDOT = 0

CCSDS_OMM_VERS = 2.0
CREATION_DATE  = 
ORIGINATOR     = 

OBJECT_NAME    = KUIPER-00208
OBJECT_ID      = 2026-030M
CENTER_NAME    = EARTH
REF_FRAME      = TEME
TIME_SYSTEM    = UTC
MEAN_ELEMENT_THEORY = SGP/SGP4

EPOCH          = 2026-03-06T19:15:41.933952
MEAN_MOTION    = 15.32330810
ECCENTRICITY   = .001484
INCLINATION    = 51.8836
RA_OF_ASC_NODE = 233.4650
ARG_OF_PERICENTER = 52.3701
MEAN_ANOMALY   = 307.8628

EPHEMERIS_TYPE = 0
CLASSIFICATION_TYPE = U
NORAD_CAT_ID   = 67775
ELEMENT_SET_NO = 999
REV_AT_EPOCH   = 464
BSTAR          = .8418E-3
MEAN_MOTION_DOT = .26475E-3
MEAN_MOTION_DDOT = 0

CCSDS_OMM_VERS = 2.0
CREATION_DATE  = 
ORIGINATOR     = 

OBJECT_NAME    = KUIPER-00209
OBJECT_ID      = 2026-030N
CENTER_NAME    = EARTH
REF_FRAME      = TEME
TIME_SYSTEM    = UTC
MEAN_ELEMENT_THEORY = SGP/SGP4

EPOCH          = 2026-03-06T20:00:00.999360
MEAN_MOTION    = 15.30222545
ECCENTRICITY   = .0012885
INCLINATION    = 51.8826
RA_OF_ASC_NODE = 233.3956
ARG_OF_PERICENTER = 59.5111
MEAN_ANOMALY   = 71.4791

EPHEMERIS_TYPE = 0
CLASSIFICATION_TYPE = U
NORAD_CAT_ID   = 67776
ELEMENT_SET_NO = 999
REV_AT_EPOCH   = 404
BSTAR          = .17874E-2
MEAN_MOTION_DOT = .53162E-3
MEAN_MOTION_DDOT = 0

CCSDS_OMM_VERS = 2.0
CREATION_DATE  = 
ORIGINATOR     = 

OBJECT_NAME    = KUIPER-00213
OBJECT_ID      = 2026-030P
CENTER_NAME    = EARTH
REF_FRAME      = TEME
TIME_SYSTEM    = UTC
MEAN_ELEMENT_THEORY = SGP/SGP4

EPOCH          = 2026-03-06T19:16:19.786656
MEAN_MOTION    = 15.32637786
ECCENTRICITY   = .0015065
INCLINATION    = 51.8815
RA_OF_ASC_NODE = 233.4594
ARG_OF_PERICENTER = 56.1993
MEAN_ANOMALY   = 304.0424

EPHEMERIS_TYPE = 0
CLASSIFICATION_TYPE = U
NORAD_CAT_ID   = 67777
ELEMENT_SET_NO = 999
REV_AT_EPOCH   = 464
BSTAR          = .11277E-2
MEAN_MOTION_DOT = .35992E-3
MEAN_MOTION_DDOT = 0

CCSDS_OMM_VERS = 2.0
CREATION_DATE  = 
ORIGINATOR     = 

OBJECT_NAME    = KUIPER-00214
OBJECT_ID      = 2026-030Q
CENTER_NAME    = EARTH
REF_FRAME      = TEME
TIME_SYSTEM    = UTC
MEAN_ELEMENT_THEORY = SGP/SGP4

EPOCH          = 2026-03-06T19:38:46.742784
MEAN_MOTION    = 15.36613882
ECCENTRICITY   = .0000463
INCLINATION    = 51.8838
RA_OF_ASC_NODE = 232.8364
ARG_OF_PERICENTER = 213.6712
MEAN_ANOMALY   = 146.4245

EPHEMERIS_TYPE = 0
CLASSIFICATION_TYPE = U
NORAD_CAT_ID   = 67778
ELEMENT_SET_NO = 999
REV_AT_EPOCH   = 465
BSTAR          = .82678E-3
MEAN_MOTION_DOT = .29746E-3
MEAN_MOTION_DDOT = 0

CCSDS_OMM_VERS = 2.0
CREATION_DATE  = 
ORIGINATOR     = 

OBJECT_NAME    = KUIPER-00215
OBJECT_ID      = 2026-030R
CENTER_NAME    = EARTH
REF_FRAME      = TEME
TIME_SYSTEM    = UTC
MEAN_ELEMENT_THEORY = SGP/SGP4

EPOCH          = 2026-03-06T18:52:12.579744
MEAN_MOTION    = 15.34338524
ECCENTRICITY   = .0010153
INCLINATION    = 51.8849
RA_OF_ASC_NODE = 233.3610
ARG_OF_PERICENTER = 51.9256
MEAN_ANOMALY   = 308.2644

EPHEMERIS_TYPE = 0
CLASSIFICATION_TYPE = U
NORAD_CAT_ID   = 67779
ELEMENT_SET_NO = 999
REV_AT_EPOCH   = 464
BSTAR          = .87868E-3
MEAN_MOTION_DOT = .29438E-3
MEAN_MOTION_DDOT = 0

CCSDS_OMM_VERS = 2.0
CREATION_DATE  = 
ORIGINATOR     = 

OBJECT_NAME    = KUIPER-00218
OBJECT_ID      = 2026-030S
CENTER_NAME    = EARTH
REF_FRAME      = TEME
TIME_SYSTEM    = UTC
MEAN_ELEMENT_THEORY = SGP/SGP4

EPOCH          = 2026-03-06T20:11:15.116352
MEAN_MOTION    = 15.35055980
ECCENTRICITY   = .0006737
INCLINATION    = 51.8839
RA_OF_ASC_NODE = 232.9797
ARG_OF_PERICENTER = 43.1388
MEAN_ANOMALY   = 317.0124

EPHEMERIS_TYPE = 0
CLASSIFICATION_TYPE = U
NORAD_CAT_ID   = 67780
ELEMENT_SET_NO = 999
REV_AT_EPOCH   = 465
BSTAR          = .80166E-3
MEAN_MOTION_DOT = .27419E-3
MEAN_MOTION_DDOT = 0

CCSDS_OMM_VERS = 2.0
CREATION_DATE  = 
ORIGINATOR     = 

OBJECT_NAME    = KUIPER-00220
OBJECT_ID      = 2026-030T
CENTER_NAME    = EARTH
REF_FRAME      = TEME
TIME_SYSTEM    = UTC
MEAN_ELEMENT_THEORY = SGP/SGP4

EPOCH          = 2026-03-06T18:46:50.160864
MEAN_MOTION    = 15.34634989
ECCENTRICITY   = .000842
INCLINATION    = 51.8818
RA_OF_ASC_NODE = 233.3285
ARG_OF_PERICENTER = 48.1771
MEAN_ANOMALY   = 311.9933

EPHEMERIS_TYPE = 0
CLASSIFICATION_TYPE = U
NORAD_CAT_ID   = 67781
ELEMENT_SET_NO = 999
REV_AT_EPOCH   = 464
BSTAR          = .85573E-3
MEAN_MOTION_DOT = .28917E-3
MEAN_MOTION_DDOT = 0

CCSDS_OMM_VERS = 2.0
CREATION_DATE  = 
ORIGINATOR     = 

OBJECT_NAME    = KUIPER-00222
OBJECT_ID      = 2026-030U
CENTER_NAME    = EARTH
REF_FRAME      = TEME
TIME_SYSTEM    = UTC
MEAN_ELEMENT_THEORY = SGP/SGP4

EPOCH          = 2026-03-06T19:21:48.142080
MEAN_MOTION    = 15.32416737
ECCENTRICITY   = .0018437
INCLINATION    = 51.8802
RA_OF_ASC_NODE = 233.4817
ARG_OF_PERICENTER = 49.2414
MEAN_ANOMALY   = 311.0167

EPHEMERIS_TYPE = 0
CLASSIFICATION_TYPE = U
NORAD_CAT_ID   = 67782
ELEMENT_SET_NO = 999
REV_AT_EPOCH   = 464
BSTAR          = .17628E-2
MEAN_MOTION_DOT = .56329E-3
MEAN_MOTION_DDOT = 0

CCSDS_OMM_VERS = 2.0
CREATION_DATE  = 
ORIGINATOR     = 

OBJECT_NAME    = KUIPER-00223
OBJECT_ID      = 2026-030V
CENTER_NAME    = EARTH
REF_FRAME      = TEME
TIME_SYSTEM    = UTC
MEAN_ELEMENT_THEORY = SGP/SGP4

EPOCH          = 2026-03-06T20:31:12.033696
MEAN_MOTION    = 15.33991056
ECCENTRICITY   = .0012463
INCLINATION    = 51.8835
RA_OF_ASC_NODE = 233.0666
ARG_OF_PERICENTER = 51.9423
MEAN_ANOMALY   = 308.2685

EPHEMERIS_TYPE = 0
CLASSIFICATION_TYPE = U
NORAD_CAT_ID   = 67783
ELEMENT_SET_NO = 999
REV_AT_EPOCH   = 465
BSTAR          = .78785E-3
MEAN_MOTION_DOT = .26072E-3
MEAN_MOTION_DDOT = 0

CCSDS_OMM_VERS = 2.0
CREATION_DATE  = 
ORIGINATOR     = 

OBJECT_NAME    = KUIPER-00225
OBJECT_ID      = 2026-030W
CENTER_NAME    = EARTH
REF_FRAME      = TEME
TIME_SYSTEM    = UTC
MEAN_ELEMENT_THEORY = SGP/SGP4

EPOCH          = 2026-03-06T19:57:23.568192
MEAN_MOTION    = 15.35778178
ECCENTRICITY   = .0004329
INCLINATION    = 51.8810
RA_OF_ASC_NODE = 232.9124
ARG_OF_PERICENTER = 32.0412
MEAN_ANOMALY   = 328.0837

EPHEMERIS_TYPE = 0
CLASSIFICATION_TYPE = U
NORAD_CAT_ID   = 67784
ELEMENT_SET_NO = 999
REV_AT_EPOCH   = 465
BSTAR          = .79763E-3
MEAN_MOTION_DOT = .27915E-3
MEAN_MOTION_DDOT = 0

CCSDS_OMM_VERS = 2.0
CREATION_DATE  = 
ORIGINATOR     = 

OBJECT_NAME    = KUIPER-00226
OBJECT_ID      = 2026-030X
CENTER_NAME    = EARTH
REF_FRAME      = TEME
TIME_SYSTEM    = UTC
MEAN_ELEMENT_THEORY = SGP/SGP4

EPOCH          = 2026-03-06T19:39:40.020480
MEAN_MOTION    = 15.31110893
ECCENTRICITY   = .0019436
INCLINATION    = 51.8807
RA_OF_ASC_NODE = 233.5633
ARG_OF_PERICENTER = 65.1236
MEAN_ANOMALY   = 295.1766

EPHEMERIS_TYPE = 0
CLASSIFICATION_TYPE = U
NORAD_CAT_ID   = 67785
ELEMENT_SET_NO = 999
REV_AT_EPOCH   = 464
BSTAR          = .6072E-3
MEAN_MOTION_DOT = .18293E-3
MEAN_MOTION_DDOT = 0

CCSDS_OMM_VERS = 2.0
CREATION_DATE  = 
ORIGINATOR     = 

OBJECT_NAME    = KUIPER-00259
OBJECT_ID      = 2026-030Y
CENTER_NAME    = EARTH
REF_FRAME      = TEME
TIME_SYSTEM    = UTC
MEAN_ELEMENT_THEORY = SGP/SGP4

EPOCH          = 2026-03-06T20:14:19.284864
MEAN_MOTION    = 15.34955015
ECCENTRICITY   = .0008442
INCLINATION    = 51.8817
RA_OF_ASC_NODE = 232.9870
ARG_OF_PERICENTER = 41.6428
MEAN_ANOMALY   = 318.5200

EPHEMERIS_TYPE = 0
CLASSIFICATION_TYPE = U
NORAD_CAT_ID   = 67786
ELEMENT_SET_NO = 999
REV_AT_EPOCH   = 465
BSTAR          = .8274E-3
MEAN_MOTION_DOT = .28234E-3
MEAN_MOTION_DDOT = 0

